ONEWEB-0620             
1 55161U 23004X   24124.57337529  .00000113  00000+0  28414-3 0  9997
2 55161  87.8996 175.1911 0002497  88.1224 272.0190 13.11420715 64308
ONEWEB-0621             
1 55162U 23004Y   24124.59935797  .00000522  00000+0  14370-2 0  9990
2 55162  87.8993 175.1561 0001736  89.0904 271.0423 13.11416999 64281
ONEWEB-0622             
1 55163U 23004Z   24124.60584861  .00000130  00000+0  33009-3 0  9991
2 55163  87.8996 175.1704 0002464  75.3707 284.7694 13.11414940 64276
ONEWEB-0623             
1 55164U 23004AA  24124.62141172  .00000055  00000+0  10829-3 0  9999
2 55164  87.9188 160.0429 0002134  70.9574 289.1789 13.17647264 65587
ONEWEB-0624             
1 55165U 23004AB  24124.55025287 -.00000392  00000+0 -11254-2 0  9998
2 55165  87.8945 144.8644 0001994  85.2453 274.8903 13.12443563 66441
ONEWEB-0625             
1 55166U 23004AC  24124.61033687  .00000050  00000+0  96863-4 0  9999
2 55166  87.9188 160.0438 0001771  97.6696 262.4637 13.17647954 65577
ONEWEB-0626             
1 55167U 23004AD  24124.60086090  .00000291  00000+0  71666-3 0  9995
2 55167  87.9181 160.0462 0002643  93.1223 267.0211 13.17645644 65577
ONEWEB-0627             
1 55168U 23004AE  24124.58977223  .00000110  00000+0  24956-3 0  9990
2 55168  87.9186 160.0500 0002383  75.4851 284.6545 13.17647942 65575
